[{"OBJECT_NAME":"STARLINK-30518","OBJECT_ID":"2023-156B","EPOCH":"2026-03-09T08:07:20.501472","MEAN_MOTION":15.30196225,"ECCENTRICITY":0.00015442,"INCLINATION":53.1604,"RA_OF_ASC_NODE":79.9129,"ARG_OF_PERICENTER":112.8694,"MEAN_ANOMALY":247.247,"EPHEMERIS_TYPE":0,"CLASSIFICATION_TYPE":"U","NORAD_CAT_ID":58029,"ELEMENT_SET_NO":999,"REV_AT_EPOCH":13626,"BSTAR":0.00025487005,"MEAN_MOTION_DOT":7.196e-5,"MEAN_MOTION_DDOT":0},{"OBJECT_NAME":"CZ-4B DEB","OBJECT_ID":"1999-057H","EPOCH":"2026-03-09T17:25:29.363520","MEAN_MOTION":15.25756771,"ECCENTRICITY":0.00339549,"INCLINATION":98.6728,"RA_OF_ASC_NODE":149.1557,"ARG_OF_PERICENTER":175.409,"MEAN_ANOMALY":184.7463,"EPHEMERIS_TYPE":0,"CLASSIFICATION_TYPE":"U","NORAD_CAT_ID":26121,"ELEMENT_SET_NO":999,"REV_AT_EPOCH":41150,"BSTAR":0.00075758105,"MEAN_MOTION_DOT":0.00019602,"MEAN_MOTION_DDOT":0}]
